0 COSMOS 2251 DEB
1 33892U 93036CV  19160.29496146  .00000432  00000-0  21304-3 0  9996
2 33892  73.8067  86.4940 0125529 178.4610 348.9076 14.16555135532430
0 COSMOS 2251 DEB
1 33893U 93036CW  19160.49841444  .00002317  00000-0  39253-3 0  9990
2 33893  74.0259 236.5731 0156574 182.7055 257.5300 14.62093223542485
0 COSMOS 2251 DEB
1 33893U 93036CW  19159.68654912 +.00001900 +00000-0 +32314-3 0  9999
2 33893 074.0255 238.1290 0156549 184.4166 304.3019 14.62087998542214
0 COSMOS 2251 DEB
1 33896U 93036CZ  19159.93299591 +.00000632 +00000-0 +32965-3 0  9991
2 33896 073.7711 120.1524 0135830 331.9304 082.4933 14.12119318531138
0 COSMOS 2251 DEB
1 33896U 93036CZ  19160.71477750  .00000623  00000-0  32485-3 0  9991
2 33896  73.7713 118.7495 0135859 330.4068  96.7740 14.12120328531533
0 COSMOS 2251 DEB
1 33899U 93036DC  19159.61467543 +.00000309 +00000-0 +90826-4 0  9995
2 33899 074.0582 230.0245 0076094 180.4709 297.3066 14.46359741543493
0 COSMOS 2251 DEB
1 33899U 93036DC  19160.37695542  .00000329  00000-0  95995-4 0  9996
2 33899  74.0581 228.6033 0076072 178.8743 306.4026 14.46360465543667
0 COSMOS 2251 DEB
1 33900U 93036DD  19160.48335255  .00000190  00000-0  55952-4 0  9998
2 33900  74.0193 164.1981 0055666 180.9840 334.0455 14.49531609545302
0 COSMOS 2251 DEB
1 33900U 93036DD  19159.44953753 +.00000165 +00000-0 +49486-4 0  9998
2 33900 074.0194 166.1398 0055710 183.1818 339.2716 14.49531052545047
0 COSMOS 2251 DEB
1 33901U 93036DE  19159.82486972 +.00000315 +00000-0 +70747-4 0  9996
2 33901 073.7908 043.3633 0117764 250.8226 108.0161 14.57203408545921
0 COSMOS 2251 DEB
1 33901U 93036DE  19160.37408928  .00000341  00000-0  76020-4 0  9992
2 33901  73.7907  42.3040 0117766 249.6771 109.1706 14.57203954546052
0 COSMOS 2251 DEB
1 33905U 93036DJ  19160.39690865  .00000191  00000-0  86573-4 0  9998
2 33905  73.8895 357.9907 0064388   7.0816  60.7416 14.27504191537017
0 COSMOS 2251 DEB
1 33905U 93036DJ  19159.62363399 +.00000185 +00000-0 +84128-4 0  9998
2 33905 073.8896 359.4036 0064379 008.6433 046.8782 14.27503785536850
0 COSMOS 2251 DEB
1 33906U 93036DK  19159.73449465 +.00000511 +00000-0 +19313-3 0  9996
2 33906 074.0401 031.9099 0052794 290.1116 133.9873 14.33038712537839
0 COSMOS 2251 DEB
1 33906U 93036DK  19160.50360611  .00000527  00000-0  19911-3 0  9999
2 33906  74.0401  30.5050 0052754 288.5287 141.7794 14.33039645538035
0 COSMOS 2251 DEB
1 33907U 93036DL  19159.37092171 +.00000499 +00000-0 +26659-3 0  9991
2 33907 074.0569 293.0395 0152246 212.5585 181.2595 14.10012800529086
0 COSMOS 2251 DEB
1 33907U 93036DL  19160.80800941  .00000529  00000-0  28190-3 0  9999
2 33907  74.0570 290.5134 0152309 209.6968 275.9810 14.10014500529285
0 COSMOS 2251 DEB
1 33909U 93036DN  19160.84702182  .00013453  00000-0  11965-2 0  9994
2 33909  74.0521 182.0243 0031658   0.1633 359.9556 14.95731708545316
0 COSMOS 2251 DEB
1 33909U 93036DN  19159.57618943 +.00009115 +00000-0 +81306-3 0  9990
2 33909 074.0520 184.5873 0031624 003.1477 356.9900 14.95698917545070
0 COSMOS 2251 DEB
1 33911U 93036DQ  19159.80523126 +.00000381 +00000-0 +11874-3 0  9996
2 33911 074.1031 300.7549 0023671 168.0218 319.4278 14.43936273541341
0 COSMOS 2251 DEB
1 33911U 93036DQ  19160.20909715  .00000425  00000-0  13170-3 0  9994
2 33911  74.1032 300.0069 0023675 167.1745 258.7859 14.43936909541910
0 COSMOS 2251 DEB
1 33912U 93036DR  19160.44089505  .00000179  00000-0  65109-4 0  9993
2 33912  74.0398 287.3547 0014403 230.9781 188.9700 14.40105560541479
0 COSMOS 2251 DEB
1 33912U 93036DR  19159.82749523 +.00000164 +00000-0 +60238-4 0  9998
2 33912 074.0399 288.4881 0014389 232.2282 248.9056 14.40105174541277
0 COSMOS 2251 DEB
1 33913U 93036DS  19159.73536503 +.00000300 +00000-0 +10173-3 0  9995
2 33913 074.0372 277.3154 0054692 245.8416 229.9497 14.40130455541547
0 COSMOS 2251 DEB
1 33913U 93036DS  19160.50118885  .00000297  00000-0  10099-3 0  9993
2 33913  74.0373 275.9001 0054694 244.2576 240.3221 14.40130968541805
0 COSMOS 2251 DEB
1 33914U 93036DT  19159.86921444 +.00000441 +00000-0 +38273-3 0  9999
2 33914 074.0903 323.2585 0311659 255.7628 213.2931 13.69076809515026
0 COSMOS 2251 DEB
1 33914U 93036DT  19160.51580625  .00000461  00000-0  39941-3 0  9990
2 33914  74.0903 322.1979 0311670 254.5549 160.1337 13.69077492515516
0 COSMOS 2251 DEB
1 33915U 93036DU  19159.82256823 +.00000098 +00000-0 +45705-4 0  9995
2 33915 074.0469 041.9625 0116295 354.0932 122.5639 14.28816620537382
0 COSMOS 2251 DEB
1 33915U 93036DU  19160.51324698  .00000099  00000-0  46232-4 0  9996
2 33915  74.0468  40.7097 0116305 352.6794  75.2301 14.28816899537628
0 COSMOS 2251 DEB
1 33916U 93036DV  19160.53058486  .00000091  00000-0  95981-4 0  9995
2 33916  74.0519 337.1246 0329713 314.9549  96.6922 13.66198733514445
0 COSMOS 2251 DEB
1 33916U 93036DV  19159.95712691 +.00000088 +00000-0 +93421-4 0  9997
2 33916 074.0519 338.0631 0329705 316.0181 156.2469 13.66198583513866
0 COSMOS 2251 DEB
1 33917U 93036DW  19159.76732379 -.00000776 +00000-0 -63388-3 0  9996
2 33917 074.1069 037.0193 0348425 333.5644 024.8049 13.63413632512668
0 COSMOS 2251 DEB
1 33917U 93036DW  19160.42766605 -.00000769  00000-0 -62852-3 0  9997
2 33917  74.1068  35.9473 0348384 332.3473  25.9480 13.63412804512937
0 COSMOS 2251 DEB
1 33918U 93036DX  19159.76344073 +.00001625 +00000-0 +24545-3 0  9991
2 33918 074.0615 045.3285 0054152 341.9881 080.6037 14.74216039549534
0 COSMOS 2251 DEB
1 33918U 93036DX  19160.78155778  .00001709  00000-0  25783-3 0  9995
2 33918  74.0614  43.3443 0054130 339.7954  83.8811 14.74220270549884
0 COSMOS 2251 DEB
1 33919U 93036DY  19159.89781439 +.00000792 +00000-0 +18533-3 0  9991
2 33919 074.0504 180.0394 0029532 137.5599 222.7856 14.56059013544720
0 COSMOS 2251 DEB
1 33919U 93036DY  19160.44746867  .00000858  00000-0  20006-3 0  9991
2 33919  74.0503 178.9981 0029510 136.3657 223.9848 14.56060321545218
0 COSMOS 2251 DEB
1 33920U 93036DZ  19159.61490076 +.00000642 +00000-0 +22912-3 0  9997
2 33920 074.0713 015.2004 0052580 269.3866 090.1261 14.35416888538398
0 COSMOS 2251 DEB
1 33920U 93036DZ  19160.38153696  .00000715  00000-0  25401-3 0  9994
2 33920  74.0712  13.7971 0052560 267.7950  91.7184 14.35418454538928
0 COSMOS 2251 DEB
1 33921U 93036EA  19160.46472280  .00002847  00000-0  33881-3 0  9996
2 33921  73.9842  28.2258 0005978  77.5650 282.6197 14.84877228549261
0 COSMOS 2251 DEB
1 33921U 93036EA  19159.72360914 +.00002481 +00000-0 +29582-3 0  9990
2 33921 073.9841 029.7016 0005922 078.9699 281.2146 14.84872256549114
0 COSMOS 2251 DEB
1 33922U 93036EB  19159.94934205 +.00000103 +00000-0 +38920-4 0  9991
2 33922 074.0517 251.6725 0026281 237.2271 244.9608 14.42625298542294
0 COSMOS 2251 DEB
1 33922U 93036EB  19160.71862904  .00000095  00000-0  36600-4 0  9997
2 33922  74.0516 250.2464 0026295 235.6686 280.1552 14.42625443542837
0 COSMOS 2251 DEB
1 33924U 93036ED  19159.94461725 +.00000148 +00000-0 +16678-3 0  9999
2 33924 073.9146 120.2189 0414274 230.0765 126.3249 13.47299504506801
0 COSMOS 2251 DEB
1 33928U 93036EH  19159.86525746 +.00000121 +00000-0 +43749-4 0  9999
2 33928 073.9249 187.9095 0066491 280.6714 078.6959 14.42913843543032
0 COSMOS 2251 DEB
1 33928U 93036EH  19160.48924513  .00000133  00000-0  47256-4 0  9994
2 33928  73.9248 186.7432 0066497 279.3880  79.9762 14.42914103543179
0 COSMOS 2251 DEB
1 33929U 93036EJ  19160.48371032  .00001801  00000-0  36333-3 0  9993
2 33929  74.0304 163.9927 0007077 291.6726 194.4326 14.62215942545433
0 COSMOS 2251 DEB
1 33929U 93036EJ  19159.85758546 +.00001648 +00000-0 +33288-3 0  9996
2 33929 074.0304 165.1920 0007075 292.9321 138.6254 14.62212897545349
0 COSMOS 2251 DEB
1 33930U 93036EK  19159.80061660 +.00000535 +00000-0 +15716-3 0  9997
2 33930 074.0306 285.4376 0026603 161.0544 355.4862 14.46023668541297
0 COSMOS 2251 DEB
1 33930U 93036EK  19160.48527292  .00000560  00000-0  16396-3 0  9994
2 33930  74.0306 284.1595 0026602 159.6735 319.5289 14.46024673541448
0 COSMOS 2251 DEB
1 33931U 93036EL  19160.47741524  .00000631  00000-0  11046-3 0  9996
2 33931  74.0245 201.0884 0232597 164.2436 196.6130 14.53975121543781
0 COSMOS 2251 DEB
1 33931U 93036EL  19159.78935141 +.00000529 +00000-0 +93552-4 0  9997
2 33931 074.0246 202.3909 0232627 165.7141 195.0755 14.53973583543581
0 COSMOS 2251 DEB
1 33932U 93036EM  19159.91653889 +.00000146 +00000-0 +62579-4 0  9999
2 33932 074.0363 352.9900 0040704 289.5078 070.1678 14.32870751538864
0 COSMOS 2251 DEB
1 33932U 93036EM  19159.98635679  .00000144  00000-0  61760-4 0  9992
2 33932  74.0363 352.8625 0040704 289.3638  70.3114 14.32870762539081
0 COSMOS 2251 DEB
1 33933U 93036EN  19159.79738973 +.00000135 +00000-0 +61450-4 0  9999
2 33933 074.0923 054.0961 0077350 311.6292 047.8248 14.29122892537692
0 COSMOS 2251 DEB
1 33933U 93036EN  19160.77740071  .00000149  00000-0  66789-4 0  9996
2 33933  74.0923  52.3229 0077356 309.6326  49.8012 14.29123299537885
0 COSMOS 2251 DEB
1 33934U 93036EP  19159.66900533 +.00000288 +00000-0 +89788-4 0  9992
2 33934 074.0434 238.0652 0021273 231.6563 128.2683 14.45110677542842
0 COSMOS 2251 DEB
1 33934U 93036EP  19160.36127495  .00000331  00000-0  10195-3 0  9993
2 33934  74.0434 236.7762 0021280 230.2996 129.6286 14.45111482543134
0 COSMOS 2251 DEB
1 33935U 93036EQ  19159.94358251 +.00000925 +00000-0 +18942-3 0  9999
2 33935 074.0078 100.5740 0042401 112.7384 247.8272 14.61732921546840
0 COSMOS 2251 DEB
1 33935U 93036EQ  19160.83330424  .00000941  00000-0  19251-3 0  9993
2 33935  74.0080  98.8688 0042434 110.7476 249.8245 14.61734701547266
